[{"OBJECT_NAME":"STARLINK-11496 [DTC]","OBJECT_ID":"2024-237A","EPOCH":"2026-03-05T08:02:50.955936","MEAN_MOTION":15.70898874,"ECCENTRICITY":0.0001354,"INCLINATION":42.9995,"RA_OF_ASC_NODE":83.199,"ARG_OF_PERICENTER":245.9262,"MEAN_ANOMALY":114.1464,"EPHEMERIS_TYPE":0,"CLASSIFICATION_TYPE":"U","NORAD_CAT_ID":62267,"ELEMENT_SET_NO":999,"REV_AT_EPOCH":7236,"BSTAR":0.0012424159,"MEAN_MOTION_DOT":0.00162526,"MEAN_MOTION_DDOT":0},{"OBJECT_NAME":"STARLINK-11501 [DTC]","OBJECT_ID":"2024-237B","EPOCH":"2026-03-05T01:10:44.330880","MEAN_MOTION":15.70949633,"ECCENTRICITY":8.113e-5,"INCLINATION":42.9975,"RA_OF_ASC_NODE":84.4742,"ARG_OF_PERICENTER":193.2678,"MEAN_ANOMALY":166.8168,"EPHEMERIS_TYPE":0,"CLASSIFICATION_TYPE":"U","NORAD_CAT_ID":62268,"ELEMENT_SET_NO":999,"REV_AT_EPOCH":7227,"BSTAR":0.0016885652,"MEAN_MOTION_DOT":0.00223162,"MEAN_MOTION_DDOT":0},{"OBJECT_NAME":"STARLINK-11491 [DTC]","OBJECT_ID":"2024-237C","EPOCH":"2026-03-05T07:09:20.050272","MEAN_MOTION":15.70878415,"ECCENTRICITY":0.00014315,"INCLINATION":42.9991,"RA_OF_ASC_NODE":82.8973,"ARG_OF_PERICENTER":244.2244,"MEAN_ANOMALY":115.8476,"EPHEMERIS_TYPE":0,"CLASSIFICATION_TYPE":"U","NORAD_CAT_ID":62269,"ELEMENT_SET_NO":999,"REV_AT_EPOCH":7236,"BSTAR":0.00087430131,"MEAN_MOTION_DOT":0.00113462,"MEAN_MOTION_DDOT":0},{"OBJECT_NAME":"STARLINK-11479 [DTC]","OBJECT_ID":"2024-237D","EPOCH":"2026-03-05T01:26:01.968864","MEAN_MOTION":15.709538,"ECCENTRICITY":9.617e-5,"INCLINATION":42.9977,"RA_OF_ASC_NODE":84.5585,"ARG_OF_PERICENTER":218.6298,"MEAN_ANOMALY":141.4501,"EPHEMERIS_TYPE":0,"CLASSIFICATION_TYPE":"U","NORAD_CAT_ID":62270,"ELEMENT_SET_NO":999,"REV_AT_EPOCH":7232,"BSTAR":0.0016250757,"MEAN_MOTION_DOT":0.00214566,"MEAN_MOTION_DDOT":0},{"OBJECT_NAME":"STARLINK-11489 [DTC]","OBJECT_ID":"2024-237E","EPOCH":"2026-03-05T02:19:32.893536","MEAN_MOTION":15.70928255,"ECCENTRICITY":0.00014459,"INCLINATION":43.0001,"RA_OF_ASC_NODE":84.859,"ARG_OF_PERICENTER":257.8515,"MEAN_ANOMALY":102.2191,"EPHEMERIS_TYPE":0,"CLASSIFICATION_TYPE":"U","NORAD_CAT_ID":62271,"ELEMENT_SET_NO":999,"REV_AT_EPOCH":7232,"BSTAR":0.0022979104,"MEAN_MOTION_DOT":0.00306682,"MEAN_MOTION_DDOT":0},{"OBJECT_NAME":"STARLINK-11494 [DTC]","OBJECT_ID":"2024-237F","EPOCH":"2026-03-05T07:55:12.566784","MEAN_MOTION":15.70891321,"ECCENTRICITY":6.725e-5,"INCLINATION":42.999,"RA_OF_ASC_NODE":83.1546,"ARG_OF_PERICENTER":252.5369,"MEAN_ANOMALY":107.5425,"EPHEMERIS_TYPE":0,"CLASSIFICATION_TYPE":"U","NORAD_CAT_ID":62272,"ELEMENT_SET_NO":999,"REV_AT_EPOCH":7231,"BSTAR":0.0021869775,"MEAN_MOTION_DOT":0.0029085,"MEAN_MOTION_DDOT":0},{"OBJECT_NAME":"STARLINK-11333 [DTC]","OBJECT_ID":"2024-237G","EPOCH":"2026-03-05T08:10:29.963712","MEAN_MOTION":15.7086591,"ECCENTRICITY":0.00010671,"INCLINATION":42.9995,"RA_OF_ASC_NODE":83.2387,"ARG_OF_PERICENTER":218.0241,"MEAN_ANOMALY":142.0551,"EPHEMERIS_TYPE":0,"CLASSIFICATION_TYPE":"U","NORAD_CAT_ID":62273,"ELEMENT_SET_NO":999,"REV_AT_EPOCH":7236,"BSTAR":0.0019795899,"MEAN_MOTION_DOT":0.00262018,"MEAN_MOTION_DDOT":0},{"OBJECT_NAME":"STARLINK-11504 [DTC]","OBJECT_ID":"2024-237H","EPOCH":"2026-03-05T06:16:00.234912","MEAN_MOTION":15.70845753,"ECCENTRICITY":0.00020325,"INCLINATION":42.9989,"RA_OF_ASC_NODE":83.4932,"ARG_OF_PERICENTER":284.442,"MEAN_ANOMALY":75.6222,"EPHEMERIS_TYPE":0,"CLASSIFICATION_TYPE":"U","NORAD_CAT_ID":62274,"ELEMENT_SET_NO":999,"REV_AT_EPOCH":7230,"BSTAR":0.0017111098,"MEAN_MOTION_DOT":0.0022522,"MEAN_MOTION_DDOT":0},{"OBJECT_NAME":"STARLINK-11495 [DTC]","OBJECT_ID":"2024-237J","EPOCH":"2026-03-05T02:27:11.630016","MEAN_MOTION":15.70895791,"ECCENTRICITY":0.00025468,"INCLINATION":42.9997,"RA_OF_ASC_NODE":84.8996,"ARG_OF_PERICENTER":280.011,"MEAN_ANOMALY":80.047,"EPHEMERIS_TYPE":0,"CLASSIFICATION_TYPE":"U","NORAD_CAT_ID":62275,"ELEMENT_SET_NO":999,"REV_AT_EPOCH":7227,"BSTAR":0.0021873055,"MEAN_MOTION_DOT":0.00290949,"MEAN_MOTION_DDOT":0},{"OBJECT_NAME":"STARLINK-11498 [DTC]","OBJECT_ID":"2024-237K","EPOCH":"2026-03-05T01:18:22.880736","MEAN_MOTION":15.70988554,"ECCENTRICITY":0.00016826,"INCLINATION":42.9997,"RA_OF_ASC_NODE":84.5143,"ARG_OF_PERICENTER":257.9199,"MEAN_ANOMALY":102.148,"EPHEMERIS_TYPE":0,"CLASSIFICATION_TYPE":"U","NORAD_CAT_ID":62276,"ELEMENT_SET_NO":999,"REV_AT_EPOCH":7232,"BSTAR":0.0024679898,"MEAN_MOTION_DOT":0.00331238,"MEAN_MOTION_DDOT":0},{"OBJECT_NAME":"STARLINK-11484 [DTC]","OBJECT_ID":"2024-237L","EPOCH":"2026-03-05T01:33:40.580064","MEAN_MOTION":15.71001673,"ECCENTRICITY":0.00017604,"INCLINATION":42.9997,"RA_OF_ASC_NODE":84.5993,"ARG_OF_PERICENTER":223.1408,"MEAN_ANOMALY":136.9322,"EPHEMERIS_TYPE":0,"CLASSIFICATION_TYPE":"U","NORAD_CAT_ID":62277,"ELEMENT_SET_NO":999,"REV_AT_EPOCH":7232,"BSTAR":0.0019813328,"MEAN_MOTION_DOT":0.00263804,"MEAN_MOTION_DDOT":0},{"OBJECT_NAME":"STARLINK-11487 [DTC]","OBJECT_ID":"2024-237M","EPOCH":"2026-03-05T02:11:53.861568","MEAN_MOTION":15.70937733,"ECCENTRICITY":0.00016819,"INCLINATION":43.0002,"RA_OF_ASC_NODE":84.8127,"ARG_OF_PERICENTER":246.9752,"MEAN_ANOMALY":113.0938,"EPHEMERIS_TYPE":0,"CLASSIFICATION_TYPE":"U","NORAD_CAT_ID":62278,"ELEMENT_SET_NO":999,"REV_AT_EPOCH":7232,"BSTAR":0.0023545921,"MEAN_MOTION_DOT":0.00314689,"MEAN_MOTION_DDOT":0},{"OBJECT_NAME":"STARLINK-11499 [DTC]","OBJECT_ID":"2024-237N","EPOCH":"2026-03-05T02:28:30.392256","MEAN_MOTION":15.70880087,"ECCENTRICITY":0.0002143,"INCLINATION":43.0016,"RA_OF_ASC_NODE":84.9025,"ARG_OF_PERICENTER":253.9566,"MEAN_ANOMALY":106.1066,"EPHEMERIS_TYPE":0,"CLASSIFICATION_TYPE":"U","NORAD_CAT_ID":62279,"ELEMENT_SET_NO":999,"REV_AT_EPOCH":7225,"BSTAR":0.0016477375,"MEAN_MOTION_DOT":0.00216958,"MEAN_MOTION_DDOT":0},{"OBJECT_NAME":"STARLINK-33548","OBJECT_ID":"2024-237P","EPOCH":"2026-03-05T03:40:32.352672","MEAN_MOTION":15.27581977,"ECCENTRICITY":0.00010271,"INCLINATION":42.9972,"RA_OF_ASC_NODE":231.1176,"ARG_OF_PERICENTER":283.5597,"MEAN_ANOMALY":76.514,"EPHEMERIS_TYPE":0,"CLASSIFICATION_TYPE":"U","NORAD_CAT_ID":62280,"ELEMENT_SET_NO":999,"REV_AT_EPOCH":7062,"BSTAR":0.0013748616,"MEAN_MOTION_DOT":0.00037767,"MEAN_MOTION_DDOT":0},{"OBJECT_NAME":"STARLINK-33544","OBJECT_ID":"2024-237Q","EPOCH":"2026-03-05T04:58:00.378048","MEAN_MOTION":15.27588173,"ECCENTRICITY":0.00020888,"INCLINATION":43.0035,"RA_OF_ASC_NODE":241.9127,"ARG_OF_PERICENTER":283.3106,"MEAN_ANOMALY":76.7513,"EPHEMERIS_TYPE":0,"CLASSIFICATION_TYPE":"U","NORAD_CAT_ID":62281,"ELEMENT_SET_NO":999,"REV_AT_EPOCH":7050,"BSTAR":0.00098783356,"MEAN_MOTION_DOT":0.00027028,"MEAN_MOTION_DDOT":0},{"OBJECT_NAME":"STARLINK-33560","OBJECT_ID":"2024-237R","EPOCH":"2026-03-04T12:50:32.292672","MEAN_MOTION":15.27622121,"ECCENTRICITY":0.0002059,"INCLINATION":42.9995,"RA_OF_ASC_NODE":245.4621,"ARG_OF_PERICENTER":283.5754,"MEAN_ANOMALY":76.4869,"EPHEMERIS_TYPE":0,"CLASSIFICATION_TYPE":"U","NORAD_CAT_ID":62282,"ELEMENT_SET_NO":999,"REV_AT_EPOCH":7031,"BSTAR":0.0016042,"MEAN_MOTION_DOT":0.00044206,"MEAN_MOTION_DDOT":0}]
