STARLINK-11496 [DTC]    
1 62267U 24237A   26064.33531199  .00162526  00000+0  12424-2 0  9999
2 62267  42.9995  83.1990 0001354 245.9262 114.1464 15.70898874 72362
STARLINK-11501 [DTC]    
1 62268U 24237B   26064.04912420  .00223162  00000+0  16886-2 0  9998
2 62268  42.9975  84.4742 0000811 193.2678 166.8168 15.70949633 72278
STARLINK-11491 [DTC]    
1 62269U 24237C   26064.29814873  .00113462  00000+0  87430-3 0  9994
2 62269  42.9991  82.8973 0001431 244.2244 115.8476 15.70878415 72365
STARLINK-11479 [DTC]    
1 62270U 24237D   26064.05974501  .00214566  00000+0  16251-2 0  9994
2 62270  42.9977  84.5585 0000961 218.6298 141.4501 15.70953800 72322
STARLINK-11489 [DTC]    
1 62271U 24237E   26064.09690849  .00306682  00000+0  22979-2 0  9994
2 62271  43.0001  84.8590 0001445 257.8515 102.2191 15.70928255 72323
STARLINK-11494 [DTC]    
1 62272U 24237F   26064.33000656  .00290850  00000+0  21870-2 0  9991
2 62272  42.9990  83.1546 0000672 252.5369 107.5425 15.70891321 72312
STARLINK-11333 [DTC]    
1 62273U 24237G   26064.34062458  .00262018  00000+0  19796-2 0  9990
2 62273  42.9995  83.2387 0001067 218.0241 142.0551 15.70865910 72361
STARLINK-11504 [DTC]    
1 62274U 24237H   26064.26111383  .00225220  00000+0  17111-2 0  9997
2 62274  42.9989  83.4932 0002032 284.4420  75.6222 15.70845753 72305
STARLINK-11495 [DTC]    
1 62275U 24237J   26064.10221794  .00290949  00000+0  21873-2 0  9999
2 62275  42.9997  84.8996 0002546 280.0110  80.0470 15.70895791 72276
STARLINK-11498 [DTC]    
1 62276U 24237K   26064.05443149  .00331238  00000+0  24680-2 0  9990
2 62276  42.9997  84.5143 0001682 257.9199 102.1480 15.70988554 72321
STARLINK-11484 [DTC]    
1 62277U 24237L   26064.06505301  .00263804  00000+0  19813-2 0  9996
2 62277  42.9997  84.5993 0001760 223.1408 136.9322 15.71001673 72329
STARLINK-11487 [DTC]    
1 62278U 24237M   26064.09159562  .00314689  00000+0  23546-2 0  9990
2 62278  43.0002  84.8127 0001681 246.9752 113.0938 15.70937733 72321
STARLINK-11499 [DTC]    
1 62279U 24237N   26064.10312954  .00216958  00000+0  16477-2 0  9994
2 62279  43.0016  84.9025 0002143 253.9566 106.1066 15.70880087 72256
STARLINK-33548          
1 62280U 24237P   26064.15315223  .00037767  00000+0  13749-2 0  9991
2 62280  42.9972 231.1176 0001027 283.5597  76.5140 15.27581977 70623
STARLINK-33544          
1 62281U 24237Q   26064.20694882  .00027028  00000+0  98783-3 0  9990
2 62281  43.0035 241.9127 0002088 283.3106  76.7513 15.27588173 70501
STARLINK-33560          
1 62282U 24237R   26063.53509598  .00044206  00000+0  16042-2 0  9999
2 62282  42.9995 245.4621 0002059 283.5754  76.4869 15.27622121 70314
